{"fetched_at":"2026-03-30T06:02:59Z","count":15439,"tles":[{"name":"STARLINK-2342","line1":"1 47883U 21021Z   26087.56380179  .00082841  00000+0  16006-2 0  9995","line2":"2 47883  53.1597 178.2003 0003232  20.0293 340.0842 15.47090859279343","category":"Starlink"}]}