{
  "norad_id": 47883,
  "name": "STARLINK-2342",
  "history": [
    {
      "epoch": "2026-03-28T13:31:52.474656",
      "apogee_km": 427.44026882444905,
      "perigee_km": 423.0425650157531,
      "latitude_deg": 44.73669041640185,
      "longitude_deg": 102.42497184011154,
      "semi_major_axis_km": 6803.378416920101,
      "eccentricity": 0.0003232,
      "inclination_deg": 53.1597,
      "raan_deg": 178.2003,
      "arg_perigee_deg": 20.0293,
      "mean_anomaly_deg": 340.0842,
      "mean_motion_rev_day": 15.47090859
    }
  ]
}